GLOBALSTAR M045         
1 25676U 99019A   25116.64612166 -.00000081  00000+0  11418-3 0  9998
2 25676  51.9958  92.1697 0000510  80.0826  91.5791 12.27061313187069
GLOBALSTAR M019         
1 25677U 99019B   25116.74172444 -.00000214  00000+0 -12921-2 0  9998
2 25677  51.9874 218.6446 0001507 195.1139 324.1246 12.13874831178899
GLOBALSTAR M044         
1 25678U 99019C   25116.89601984 -.00000040  00000+0  60849-3 0  9990
2 25678  51.9944 163.1614 0006093 300.4684 231.6870 11.90249152165190
GLOBALSTAR M042         
1 25679U 99019D   25116.96985971 -.00000044  00000+0  44999-3 0  9992
2 25679  52.0003 195.5425 0003226 188.5065 343.0286 12.22081937178993
GLOBALSTAR M025         
1 25770U 99031A   25116.95384148 -.00000071  00000+0 -12118-3 0  9995
2 25770  51.9816 277.9580 0002120  82.6980  89.4663 11.22558058475952
GLOBALSTAR M049         
1 25771U 99031B   25116.93651363 -.00000107  00000+0 -14458-2 0  9998
2 25771  51.9890 310.1871 0001934 285.2820  74.7763 11.12113118111727
GLOBALSTAR M047         
1 25772U 99031C   25116.84263785 -.00000067  00000+0  64510-4 0  9996
2 25772  51.9846 312.2748 0016631 172.1141 187.9928 11.31927564465298
GLOBALSTAR M052         
1 25773U 99031D   25116.76388931 -.00000089  00000+0 -76176-3 0  9994
2 25773  51.9879  59.9696 0002688  81.3928 307.3551 11.15058752472770
